{
"type": "FeatureCollection",
"name": "e_4326",
"crs": { "type": "name", "properties": { "name": "urn:ogc:def:crs:OGC:1.3:CRS84" } },
"features": [
{ "type": "Feature", "properties": { "fid": 1, "id": "e_0001", "building_id": "b-25", "building_name": "공주대학교 국민체육센터", "entrance_code": "main", "entrance_name": "정문", "floor": "1F", "entrance_type": "main" }, "geometry": { "type": "Point", "coordinates": [ 127.137052286584563, 36.465904437306286 ] } },
{ "type": "Feature", "properties": { "fid": 2, "id": "e_0002", "building_id": "b-26", "building_name": "공주대학교 공주학연구원", "entrance_code": "main", "entrance_name": "정문", "floor": "1F", "entrance_type": "main" }, "geometry": { "type": "Point", "coordinates": [ 127.139536629483757, 36.465635326805248 ] } },
{ "type": "Feature", "properties": { "fid": 3, "id": "e_0003", "building_id": "b-0", "building_name": "공주대학교 인문사회과학대학관", "entrance_code": "main", "entrance_name": "후문", "floor": "1F", "entrance_type": "main" }, "geometry": { "type": "Point", "coordinates": [ 127.138642786205949, 36.466432836510734 ] } },
{ "type": "Feature", "properties": { "fid": 4, "id": "e_0004", "building_id": "b-0", "building_name": "공주대학교 인문사회과학대학관", "entrance_code": "rear", "entrance_name": "정문", "floor": "1F", "entrance_type": "secondary" }, "geometry": { "type": "Point", "coordinates": [ 127.138507995398811, 36.466254190708995 ] } },
{ "type": "Feature", "properties": { "fid": 5, "id": "e_0005", "building_id": "b-0", "building_name": "공주대학교 인문사회과학대학관", "entrance_code": "west", "entrance_name": "서문", "floor": "1F", "entrance_type": "secondary" }, "geometry": { "type": "Point", "coordinates": [ 127.138042699488651, 36.466586511837711 ] } },
{ "type": "Feature", "properties": { "fid": 6, "id": "e_0006", "building_id": "b-0", "building_name": "공주대학교 인문사회과학대학관", "entrance_code": "east", "entrance_name": "동문", "floor": "1F", "entrance_type": "secondary" }, "geometry": { "type": "Point", "coordinates": [ 127.139039518695469, 36.466138366840028 ] } },
{ "type": "Feature", "properties": { "fid": 7, "id": "e_0007", "building_id": "b-0", "building_name": "공주대학교 인문사회과학대학관", "entrance_code": "b1-main", "entrance_name": "지하1층입구", "floor": "B1", "entrance_type": "service" }, "geometry": { "type": "Point", "coordinates": [ 127.138924758406574, 36.46610135102506 ] } },
{ "type": "Feature", "properties": { "fid": 8, "id": "e_0008", "building_id": "b-32", "building_name": "공주대학교 백제교육문화관", "entrance_code": "main", "entrance_name": "정문", "floor": "1F", "entrance_type": "main" }, "geometry": { "type": "Point", "coordinates": [ 127.138763363528057, 36.466826345414312 ] } },
{ "type": "Feature", "properties": { "fid": 9, "id": "e_0009", "building_id": "b-32", "building_name": "공주대학교 백제교육문화관", "entrance_code": "rear", "entrance_name": "후문", "floor": "1F", "entrance_type": "secondary" }, "geometry": { "type": "Point", "coordinates": [ 127.139211050423313, 36.466573339691124 ] } },
{ "type": "Feature", "properties": { "fid": 10, "id": "e_0010", "building_id": "b-32", "building_name": "공주대학교 백제교육문화관", "entrance_code": "b1-main", "entrance_name": "지하 1층 입구", "floor": "B1", "entrance_type": "secondary" }, "geometry": { "type": "Point", "coordinates": [ 127.139046643186546, 36.466584910748395 ] } },
{ "type": "Feature", "properties": { "fid": 11, "id": "e_0011", "building_id": "b-30", "building_name": "공주대학교 블룸하우스", "entrance_code": "main", "entrance_name": "정문", "floor": "1F", "entrance_type": "main" }, "geometry": { "type": "Point", "coordinates": [ 127.13792973198737, 36.467028978207331 ] } },
{ "type": "Feature", "properties": { "fid": 12, "id": "e_0012", "building_id": "b-30", "building_name": "공주대학교 블룸하우스", "entrance_code": "rear", "entrance_name": "후문", "floor": "1f", "entrance_type": "secondary" }, "geometry": { "type": "Point", "coordinates": [ 127.138052269376843, 36.467247505270919 ] } },
{ "type": "Feature", "properties": { "fid": 13, "id": "e_0013", "building_id": "b-35", "building_name": "공주대학교 비전하우스B동", "entrance_code": "main", "entrance_name": "정문", "floor": "1F", "entrance_type": "main" }, "geometry": { "type": "Point", "coordinates": [ 127.137786540465839, 36.467915089990775 ] } },
{ "type": "Feature", "properties": { "fid": 14, "id": "e_0014", "building_id": "b-34", "building_name": "공주대학교 비전하우스A동", "entrance_code": "main", "entrance_name": "정문", "floor": "1F", "entrance_type": "main" }, "geometry": { "type": "Point", "coordinates": [ 127.138006880270069, 36.467739841746578 ] } },
{ "type": "Feature", "properties": { "fid": 15, "id": "e_0015", "building_id": "b-33", "building_name": "공주대학교 무용관", "entrance_code": "main", "entrance_name": "정문", "floor": "1F", "entrance_type": "main" }, "geometry": { "type": "Point", "coordinates": [ 127.140094087777683, 36.467864050966668 ] } },
{ "type": "Feature", "properties": { "fid": 16, "id": "e_0016", "building_id": "b-33", "building_name": "공주대학교 무용관", "entrance_code": "rear", "entrance_name": "후문", "floor": "1F", "entrance_type": "secondary" }, "geometry": { "type": "Point", "coordinates": [ 127.140262619739403, 36.467737669237785 ] } },
{ "type": "Feature", "properties": { "fid": 17, "id": "e_0017", "building_id": "b-2", "building_name": "공주대학교 음악관", "entrance_code": "rear", "entrance_name": "후문", "floor": "1F", "entrance_type": "secondary" }, "geometry": { "type": "Point", "coordinates": [ 127.140250307464839, 36.467603953937264 ] } },
{ "type": "Feature", "properties": { "fid": 18, "id": "e_0018", "building_id": "b-2", "building_name": "공주대학교 음악관", "entrance_code": "main", "entrance_name": "정문", "floor": "1F", "entrance_type": "main" }, "geometry": { "type": "Point", "coordinates": [ 127.140405438485956, 36.467610455534754 ] } },
{ "type": "Feature", "properties": { "fid": 19, "id": "e_0019", "building_id": "b-3", "building_name": "공주대학교 마루관", "entrance_code": "main", "entrance_name": "정문", "floor": "1F", "entrance_type": "main" }, "geometry": { "type": "Point", "coordinates": [ 127.140260024733536, 36.468361492920735 ] } },
{ "type": "Feature", "properties": { "fid": 20, "id": "e_0020", "building_id": "b-4", "building_name": "공주대학교 제2도서관", "entrance_code": "main", "entrance_name": "정문", "floor": "1F", "entrance_type": "main" }, "geometry": { "type": "Point", "coordinates": [ 127.14042979685405, 36.46857337154033 ] } },
{ "type": "Feature", "properties": { "fid": 21, "id": "e_0021", "building_id": "b-8", "building_name": "공주대학교 외국어상업정보관", "entrance_code": "main", "entrance_name": "정문", "floor": "1F", "entrance_type": "main" }, "geometry": { "type": "Point", "coordinates": [ 127.141340887324915, 36.468399500026862 ] } },
{ "type": "Feature", "properties": { "fid": 22, "id": "e_0022", "building_id": "b-7", "building_name": "교육정보관", "entrance_code": "main", "entrance_name": "정문", "floor": "1F", "entrance_type": "main" }, "geometry": { "type": "Point", "coordinates": [ 127.141088401700017, 36.468692786552737 ] } },
{ "type": "Feature", "properties": { "fid": 23, "id": "e_0023", "building_id": "b-6", "building_name": "공주대학교 사범1관", "entrance_code": "main", "entrance_name": "정문", "floor": "1F", "entrance_type": "main" }, "geometry": { "type": "Point", "coordinates": [ 127.141198446812069, 36.468881102365962 ] } },
{ "type": "Feature", "properties": { "fid": 24, "id": "e_0024", "building_id": "b-6", "building_name": "공주대학교 사범1관", "entrance_code": "west", "entrance_name": "서문", "floor": "1F", "entrance_type": "secondary" }, "geometry": { "type": "Point", "coordinates": [ 127.14099750958718, 36.468962190308382 ] } },
{ "type": "Feature", "properties": { "fid": 25, "id": "e_0025", "building_id": "b-6", "building_name": "공주대학교 사범1관", "entrance_code": "east", "entrance_name": "동문", "floor": "1F", "entrance_type": "secondary" }, "geometry": { "type": "Point", "coordinates": [ 127.141429114574933, 36.468895488353319 ] } },
{ "type": "Feature", "properties": { "fid": 26, "id": "e_0026", "building_id": "b-5", "building_name": "문화체육관", "entrance_code": "west", "entrance_name": "서문", "floor": "2F", "entrance_type": "secondary" }, "geometry": { "type": "Point", "coordinates": [ 127.141999758684122, 36.468648411546219 ] } },
{ "type": "Feature", "properties": { "fid": 27, "id": "e_0027", "building_id": "b-5", "building_name": "문화체육관", "entrance_code": "main", "entrance_name": "정문", "floor": "1F", "entrance_type": "main" }, "geometry": { "type": "Point", "coordinates": [ 127.142217916522085, 36.468196045253912 ] } },
{ "type": "Feature", "properties": { "fid": 28, "id": "e_0028", "building_id": "b-1", "building_name": "공주대학교 중앙도서관", "entrance_code": "main", "entrance_name": "정문", "floor": "1F", "entrance_type": "main" }, "geometry": { "type": "Point", "coordinates": [ 127.140584139961561, 36.469311155058556 ] } },
{ "type": "Feature", "properties": { "fid": 29, "id": "e_0029", "building_id": "b-1", "building_name": "공주대학교 중앙도서관", "entrance_code": "rear", "entrance_name": "후문", "floor": "3F", "entrance_type": "secondary" }, "geometry": { "type": "Point", "coordinates": [ 127.140664634662727, 36.469676227395318 ] } },
{ "type": "Feature", "properties": { "fid": 30, "id": "e_0030", "building_id": "b-21", "building_name": "공주대학교 교양관", "entrance_code": "west", "entrance_name": "서문", "floor": "1F", "entrance_type": "main" }, "geometry": { "type": "Point", "coordinates": [ 127.139186746434902, 36.469423830072927 ] } },
{ "type": "Feature", "properties": { "fid": 31, "id": "e_0031", "building_id": "b-21", "building_name": "공주대학교 교양관", "entrance_code": "east", "entrance_name": "동문", "floor": "1F", "entrance_type": "secondary" }, "geometry": { "type": "Point", "coordinates": [ 127.139682595811223, 36.469320670836574 ] } },
{ "type": "Feature", "properties": { "fid": 32, "id": "e_0032", "building_id": "b-21", "building_name": "공주대학교 교양관", "entrance_code": "rear_1", "entrance_name": "동쪽 후문", "floor": "1F", "entrance_type": "secondary" }, "geometry": { "type": "Point", "coordinates": [ 127.139660130469693, 36.469448511726178 ] } },
{ "type": "Feature", "properties": { "fid": 33, "id": "e_0033", "building_id": "b-21", "building_name": "공주대학교 교양관", "entrance_code": "rear_2", "entrance_name": "서쪽 후문", "floor": "1F", "entrance_type": "secondary" }, "geometry": { "type": "Point", "coordinates": [ 127.139268447744172, 36.469530918225516 ] } },
{ "type": "Feature", "properties": { "fid": 34, "id": "e_0034", "building_id": "b-20", "building_name": "공주대학교 생활미술관", "entrance_code": "main", "entrance_name": "정문", "floor": "1F", "entrance_type": "main" }, "geometry": { "type": "Point", "coordinates": [ 127.139434066674298, 36.470328588961344 ] } },
{ "type": "Feature", "properties": { "fid": 35, "id": "e_0035", "building_id": "b-23", "building_name": "공주대학교 학생복지관", "entrance_code": "main", "entrance_name": "정문", "floor": "1F", "entrance_type": "main" }, "geometry": { "type": "Point", "coordinates": [ 127.140389901473682, 36.470214549649292 ] } },
{ "type": "Feature", "properties": { "fid": 36, "id": "e_0036", "building_id": "b-23", "building_name": "공주대학교 학생복지관", "entrance_code": "rear", "entrance_name": "식당 정문", "floor": "1F", "entrance_type": "secondary" }, "geometry": { "type": "Point", "coordinates": [ 127.140276668093065, 36.470081973911938 ] } },
{ "type": "Feature", "properties": { "fid": 37, "id": "e_0037", "building_id": "b-40", "building_name": "공주대학교 헌혈의집", "entrance_code": "main", "entrance_name": "정문", "floor": "1F", "entrance_type": "main" }, "geometry": { "type": "Point", "coordinates": [ 127.140017447771129, 36.469297478266149 ] } },
{ "type": "Feature", "properties": { "fid": 38, "id": "e_0038", "building_id": "b-19", "building_name": "공주대학교 웅비학생회관", "entrance_code": "main", "entrance_name": "정문", "floor": "1F", "entrance_type": "main" }, "geometry": { "type": "Point", "coordinates": [ 127.139529204374256, 36.469738801336646 ] } },
{ "type": "Feature", "properties": { "fid": 39, "id": "e_0039", "building_id": "b_19", "building_name": "공주대학교 웅비학생회관", "entrance_code": "rear_1", "entrance_name": "3층계단문", "floor": "3F", "entrance_type": "secondary" }, "geometry": { "type": "Point", "coordinates": [ 127.139836566512727, 36.469910842533629 ] } },
{ "type": "Feature", "properties": { "fid": 40, "id": "e_0040", "building_id": "b-19", "building_name": "공주대학교 웅비학생회고간", "entrance_code": "rear", "entrance_name": "3층 경사로 가는문", "floor": "3F", "entrance_type": "secondary" }, "geometry": { "type": "Point", "coordinates": [ 127.139782166134253, 36.469844882074703 ] } },
{ "type": "Feature", "properties": { "fid": 41, "id": "e_0041", "building_id": "b-19", "building_name": "공주대학교 웅비학생회관", "entrance_code": "rear_2", "entrance_name": "2층 계단입구", "floor": "2F", "entrance_type": "secondary" }, "geometry": { "type": "Point", "coordinates": [ 127.139765166015962, 36.469954362836411 ] } },
{ "type": "Feature", "properties": { "fid": 42, "id": "e_0042", "building_id": "b-19", "building_name": "공주대학교 웅비학생회관", "entrance_code": "rear_3", "entrance_name": "후문", "floor": "1F", "entrance_type": "secondary" }, "geometry": { "type": "Point", "coordinates": [ 127.139429923683551, 36.470036983411248 ] } },
{ "type": "Feature", "properties": { "fid": 43, "id": "e_0043", "building_id": "b-10", "building_name": "공주대학교 특수문헌정보관", "entrance_code": "main", "entrance_name": "정문", "floor": "1F", "entrance_type": "main" }, "geometry": { "type": "Point", "coordinates": [ 127.143114019315618, 36.469219171471352 ] } },
{ "type": "Feature", "properties": { "fid": 44, "id": "e_0044", "building_id": "b-10", "building_name": "공주대학교 특수문헌정복관", "entrance_code": "west", "entrance_name": "서문", "floor": "1F", "entrance_type": "secondary" }, "geometry": { "type": "Point", "coordinates": [ 127.142741036720622, 36.469244331646401 ] } },
{ "type": "Feature", "properties": { "fid": 45, "id": "e_0045", "building_id": "b-11", "building_name": "공주대학교 사범대학관", "entrance_code": "main", "entrance_name": "정문", "floor": "1F", "entrance_type": "main" }, "geometry": { "type": "Point", "coordinates": [ 127.142164052706278, 36.469733935052822 ] } },
{ "type": "Feature", "properties": { "fid": 46, "id": "e_0046", "building_id": "b-12", "building_name": "공주대학교 대학본부", "entrance_code": "main", "entrance_name": "정문", "floor": "1F", "entrance_type": "main" }, "geometry": { "type": "Point", "coordinates": [ 127.141527568277937, 36.469810775587426 ] } },
{ "type": "Feature", "properties": { "fid": 47, "id": "e_0047", "building_id": "b-9", "building_name": "공주대학교 세종한민족교육문화센터", "entrance_code": "main", "entrance_name": "정문", "floor": "1F", "entrance_type": "main" }, "geometry": { "type": "Point", "coordinates": [ 127.143825486862511, 36.468969284687745 ] } },
{ "type": "Feature", "properties": { "fid": 48, "id": "e_0048", "building_id": "b-9", "building_name": "공주대학교 세종한민족교육문화센터", "entrance_code": "rear1", "entrance_name": "1층 후문", "floor": "1F", "entrance_type": "secondary" }, "geometry": { "type": "Point", "coordinates": [ 127.143653420479907, 36.469070630578138 ] } },
{ "type": "Feature", "properties": { "fid": 49, "id": "e_0049", "building_id": "b-9", "building_name": "공주대학교 세종한민족교육문화센터", "entrance_code": "rear2", "entrance_name": "2층 출입구", "floor": "2F", "entrance_type": "secondary" }, "geometry": { "type": "Point", "coordinates": [ 127.143598214169813, 36.469241085097579 ] } },
{ "type": "Feature", "properties": { "fid": 50, "id": "e_0050", "building_id": "b-13", "building_name": "공주대학교 제1과학교육관", "entrance_code": "main", "entrance_name": "정문", "floor": "1F", "entrance_type": "main" }, "geometry": { "type": "Point", "coordinates": [ 127.141948875285181, 36.470165488567112 ] } },
{ "type": "Feature", "properties": { "fid": 51, "id": "e_0051", "building_id": "b-13", "building_name": "공주대학교 제1과학교육관", "entrance_code": "west", "entrance_name": "서문", "floor": "1F", "entrance_type": "secondary" }, "geometry": { "type": "Point", "coordinates": [ 127.141649723573906, 36.470280636035021 ] } },
{ "type": "Feature", "properties": { "fid": 52, "id": "e_0052", "building_id": "b-14", "building_name": "공주대학교 제2과학교육관", "entrance_code": "west", "entrance_name": "서문", "floor": "1F", "entrance_type": "secondary" }, "geometry": { "type": "Point", "coordinates": [ 127.142164915306935, 36.470726316173334 ] } },
{ "type": "Feature", "properties": { "fid": 53, "id": "e_0053", "building_id": "b-14", "building_name": "공주대학교 제2과학교육관", "entrance_code": "main", "entrance_name": "정문", "floor": "1F", "entrance_type": "main" }, "geometry": { "type": "Point", "coordinates": [ 127.142472982635766, 36.470578427736839 ] } },
{ "type": "Feature", "properties": { "fid": 54, "id": "e_0054", "building_id": "b-36", "building_name": "공주대학교 은행사", "entrance_code": "main", "entrance_name": "정문", "floor": "1F", "entrance_type": "main" }, "geometry": { "type": "Point", "coordinates": [ 127.143692760012527, 36.469967934599794 ] } },
{ "type": "Feature", "properties": { "fid": 55, "id": "e_0055", "building_id": "b-38", "building_name": "공주대학교 학생생활관 식당", "entrance_code": "west", "entrance_name": "서문", "floor": "1F", "entrance_type": "secondary" }, "geometry": { "type": "Point", "coordinates": [ 127.144370951398415, 36.469988485853925 ] } },
{ "type": "Feature", "properties": { "fid": 56, "id": "e_0056", "building_id": "b-38", "building_name": "공주대학교 학생생활관 식당", "entrance_code": "main", "entrance_name": "정문", "floor": "1F", "entrance_type": "main" }, "geometry": { "type": "Point", "coordinates": [ 127.14477754385733, 36.47004651292437 ] } },
{ "type": "Feature", "properties": { "fid": 57, "id": "e_0057", "building_id": "b-31", "building_name": "공주대학교 홍익사", "entrance_code": "main", "entrance_name": "정문", "floor": "1F", "entrance_type": "main" }, "geometry": { "type": "Point", "coordinates": [ 127.145207709813604, 36.470426509642671 ] } },
{ "type": "Feature", "properties": { "fid": 58, "id": "e_0058", "building_id": "b-39", "building_name": "공주대학교 해오름집", "entrance_code": "main", "entrance_name": "정문", "floor": "1F", "entrance_type": "main" }, "geometry": { "type": "Point", "coordinates": [ 127.145359627907695, 36.470840758451175 ] } },
{ "type": "Feature", "properties": { "fid": 59, "id": "e_0059", "building_id": "b-39", "building_name": "공주대학교 해오름집", "entrance_code": "west", "entrance_name": "서문", "floor": "1F", "entrance_type": "secondary" }, "geometry": { "type": "Point", "coordinates": [ 127.145240350040638, 36.470758553434706 ] } },
{ "type": "Feature", "properties": { "fid": 60, "id": "e_0060", "building_id": "b-15", "building_name": "공주대학교 자연과학대학", "entrance_code": "west", "entrance_name": "서문", "floor": "1F", "entrance_type": "secondary" }, "geometry": { "type": "Point", "coordinates": [ 127.143556053876026, 36.470729942865233 ] } },
{ "type": "Feature", "properties": { "fid": 61, "id": "e_0061", "building_id": "b-15", "building_name": "공주대학교 자연과학대학", "entrance_code": "main", "entrance_name": "정문", "floor": "1F", "entrance_type": "main" }, "geometry": { "type": "Point", "coordinates": [ 127.144440160768823, 36.470725107276031 ] } },
{ "type": "Feature", "properties": { "fid": 62, "id": "e_0062", "building_id": "b-15", "building_name": "공주대학교 자연과학대학", "entrance_code": "rear", "entrance_name": "후문", "floor": "1F", "entrance_type": "secondary" }, "geometry": { "type": "Point", "coordinates": [ 127.144605578216215, 36.471214710682965 ] } },
{ "type": "Feature", "properties": { "fid": 63, "id": "e_0063", "building_id": "b-15", "building_name": "공주대학교 자연과학대학", "entrance_code": "east", "entrance_name": "동문", "floor": "1F", "entrance_type": "secondary" }, "geometry": { "type": "Point", "coordinates": [ 127.144723042737326, 36.470719868721069 ] } },
{ "type": "Feature", "properties": { "fid": 64, "id": "e_0064", "building_id": "b-17", "building_name": "공주대학교 사범2호관", "entrance_code": "wrst", "entrance_name": "서문", "floor": "1F", "entrance_type": "secondary" }, "geometry": { "type": "Point", "coordinates": [ 127.142295123620244, 36.471773775314006 ] } },
{ "type": "Feature", "properties": { "fid": 65, "id": "e_0065", "building_id": "b-17", "building_name": "공주대학교 사범2호관", "entrance_code": "main", "entrance_name": "정문", "floor": "1F", "entrance_type": "main" }, "geometry": { "type": "Point", "coordinates": [ 127.142581632280567, 36.471761283375216 ] } },
{ "type": "Feature", "properties": { "fid": 66, "id": "e_0066", "building_id": "b-17", "building_name": "공주대학교 사범2호관", "entrance_code": "rear", "entrance_name": "후문", "floor": "1F", "entrance_type": "secondary" }, "geometry": { "type": "Point", "coordinates": [ 127.142487338291062, 36.471698420715548 ] } },
{ "type": "Feature", "properties": { "fid": 67, "id": "e_0067", "building_id": "b-16", "building_name": "공주대학교 간호보건예술대학", "entrance_code": "west", "entrance_name": "서문", "floor": "1F", "entrance_type": "secondary" }, "geometry": { "type": "Point", "coordinates": [ 127.143034162836912, 36.471748388470644 ] } },
{ "type": "Feature", "properties": { "fid": 68, "id": "e_0068", "building_id": "b-16", "building_name": "공주대학교 간호보건예술대학", "entrance_code": "main", "entrance_name": "정문", "floor": "1F", "entrance_type": "main" }, "geometry": { "type": "Point", "coordinates": [ 127.143674878406429, 36.471770753070722 ] } },
{ "type": "Feature", "properties": { "fid": 69, "id": "e_0069", "building_id": "b-16", "building_name": "공주대학교 간호보건예술대학", "entrance_code": "rear1", "entrance_name": "후문", "floor": "1F", "entrance_type": "secondary" }, "geometry": { "type": "Point", "coordinates": [ 127.143665207228011, 36.471290417876425 ] } },
{ "type": "Feature", "properties": { "fid": 70, "id": "e_0070", "building_id": "b-16", "building_name": "공주대학교 간호보건예술대학", "entrance_code": "west2", "entrance_name": "서문2", "floor": "1F", "entrance_type": "secondary" }, "geometry": { "type": "Point", "coordinates": [ 127.143264659255593, 36.471230778942903 ] } },
{ "type": "Feature", "properties": { "fid": 71, "id": "e_0071", "building_id": "b-16", "building_name": "공주대학교 간호보건예술대학", "entrance_code": "rear2", "entrance_name": "3층외부통로", "floor": "3F", "entrance_type": "secondary" }, "geometry": { "type": "Point", "coordinates": [ 127.143794760722159, 36.471199952061724 ] } },
{ "type": "Feature", "properties": { "fid": 72, "id": "e_0072", "building_id": "b-23", "building_name": "공주대학교 학생복지관", "entrance_code": "rear2", "entrance_name": "뒷문", "floor": "1F", "entrance_type": "secondary" }, "geometry": { "type": "Point", "coordinates": [ 127.140215240998941, 36.470320504460574 ] } },
{ "type": "Feature", "properties": { "fid": 73, "id": "e_0073", "building_id": "b-22", "building_name": "공주대학교 글로벌인재관", "entrance_code": "main", "entrance_name": "정문", "floor": "1F", "entrance_type": "main" }, "geometry": { "type": "Point", "coordinates": [ 127.140241534515255, 36.470581324053363 ] } },
{ "type": "Feature", "properties": { "fid": 74, "id": "e_0074", "building_id": "b-29", "building_name": "공주대학교 산학연구관", "entrance_code": "main", "entrance_name": "정문", "floor": "1F", "entrance_type": "main" }, "geometry": { "type": "Point", "coordinates": [ 127.141175407680592, 36.471000206968313 ] } },
{ "type": "Feature", "properties": { "fid": 75, "id": "e_0075", "building_id": "b-29", "building_name": "공주대학교 산학연구관", "entrance_code": "rear", "entrance_name": "지하1층입구", "floor": "B1", "entrance_type": "secondary" }, "geometry": { "type": "Point", "coordinates": [ 127.141192030018445, 36.471162803655353 ] } },
{ "type": "Feature", "properties": { "fid": 76, "id": "e_0076", "building_id": "b-28", "building_name": "공주대학교 드림하우스", "entrance_code": "west", "entrance_name": "서문", "floor": "1F", "entrance_type": "secondary" }, "geometry": { "type": "Point", "coordinates": [ 127.140940768269687, 36.471576850981094 ] } },
{ "type": "Feature", "properties": { "fid": 77, "id": "e_0077", "building_id": "b-28", "building_name": "공주대학교 드림하우스", "entrance_code": "main1", "entrance_name": "B동입구", "floor": "1F", "entrance_type": "main" }, "geometry": { "type": "Point", "coordinates": [ 127.141034155586198, 36.471729172041073 ] } },
{ "type": "Feature", "properties": { "fid": 78, "id": "e_0078", "building_id": "b-28", "building_name": "공주대학교 드림하우스", "entrance_code": "main2", "entrance_name": "A동입구", "floor": "1F", "entrance_type": "secondary" }, "geometry": { "type": "Point", "coordinates": [ 127.141483865382313, 36.471879679755091 ] } }
]
}
