{
"type": "FeatureCollection",
"name": "indoor",
"crs": { "type": "name", "properties": { "name": "urn:ogc:def:crs:OGC:1.3:CRS84" } },
"features": [
{ "type": "Feature", "properties": { "fid": 1, "id": "i_001", "type": "path", "building_id": "b-29", "floor": "B1", "scope": "indoor", "memo": "B1 -> 1F" }, "geometry": { "type": "LineString", "coordinates": [ [ 127.141192030018445, 36.471162803655353 ], [ 127.14118570718199, 36.471110733351217 ], [ 127.141149291724133, 36.471113960037364 ], [ 127.141149234104702, 36.471125195819475 ] ] } },
{ "type": "Feature", "properties": { "fid": 2, "id": "i_002", "type": "path", "building_id": "b-29", "floor": "1F", "scope": "indoor", "memo": "1F -> B1" }, "geometry": { "type": "LineString", "coordinates": [ [ 127.141175407680592, 36.471000206968313 ], [ 127.141149234104702, 36.471125195819475 ] ] } },
{ "type": "Feature", "properties": { "fid": 3, "id": "i_003", "type": "path", "building_id": "b-1", "floor": "3F", "scope": "indoor", "memo": "3F -> 1F" }, "geometry": { "type": "LineString", "coordinates": [ [ 127.140664634662727, 36.469676227395318 ], [ 127.140608360840531, 36.469501769355304 ], [ 127.140496348735965, 36.469551552512876 ], [ 127.14050389687668, 36.469569933099947 ] ] } },
{ "type": "Feature", "properties": { "fid": 4, "id": "i_004", "type": "path", "building_id": "b-1", "floor": "1F", "scope": "indoor", "memo": "1F -> 3F" }, "geometry": { "type": "LineString", "coordinates": [ [ 127.140584139961561, 36.469311155058556 ], [ 127.14064500677604, 36.469503843653534 ], [ 127.140495657303276, 36.469549017259489 ], [ 127.14050389687668, 36.469569933099947 ] ] } },
{ "type": "Feature", "properties": { "fid": 5, "id": "i_005", "type": "path", "building_id": "b-19", "floor": "1F", "scope": "indoor", "memo": "1F -> 3F" }, "geometry": { "type": "LineString", "coordinates": [ [ 127.139429923683551, 36.470036983411248 ], [ 127.139407342163793, 36.469971252188664 ], [ 127.139542862981685, 36.46993714150662 ], [ 127.139522984290068, 36.469880616879742 ] ] } },
{ "type": "Feature", "properties": { "fid": 6, "id": "i_006", "type": "path", "building_id": "b-19", "floor": "1F", "scope": "indoor", "memo": "1F -> 3F" }, "geometry": { "type": "LineString", "coordinates": [ [ 127.139529204374256, 36.469738801336646 ], [ 127.139545167757475, 36.469796550181961 ], [ 127.139602326197704, 36.469779955796099 ], [ 127.139630905417775, 36.469874912559661 ], [ 127.139537331519762, 36.469902569869411 ], [ 127.139522984290068, 36.469880616879742 ] ] } },
{ "type": "Feature", "properties": { "fid": 7, "id": "i_007", "type": "path", "building_id": "b-19", "floor": "2F", "scope": "indoor", "memo": "2F -> 1For3F" }, "geometry": { "type": "LineString", "coordinates": [ [ 127.139765166015962, 36.469954362836411 ], [ 127.139749486133439, 36.469895540303177 ], [ 127.139546204906623, 36.46993495196962 ], [ 127.139522984290068, 36.469880616879742 ] ] } },
{ "type": "Feature", "properties": { "fid": 8, "id": "i_008", "type": "path", "building_id": "b-19", "floor": "3F", "scope": "indoor", "memo": "3F -> 1F" }, "geometry": { "type": "LineString", "coordinates": [ [ 127.139836566512727, 36.469910842533629 ], [ 127.139553810666797, 36.469964683577622 ], [ 127.139522984290068, 36.469880616879742 ] ] } },
{ "type": "Feature", "properties": { "fid": 9, "id": "i_009", "type": "path", "building_id": "b-19", "floor": "3F", "scope": "indoor", "memo": "3F -> 1F" }, "geometry": { "type": "LineString", "coordinates": [ [ 127.139782166134253, 36.469844882074703 ], [ 127.139799845484973, 36.469901071765157 ], [ 127.139555078293483, 36.469951776833078 ], [ 127.139522984290068, 36.469880616879742 ] ] } },
{ "type": "Feature", "properties": { "fid": 10, "id": "i_009", "type": "path", "building_id": "b-18", "floor": "B1", "scope": "outdoor", "memo": "B1 -> 2F" }, "geometry": { "type": "LineString", "coordinates": [ [ 127.140816701037352, 36.47068692953026 ], [ 127.140767563229858, 36.470408871496382 ] ] } },
{ "type": "Feature", "properties": { "fid": 11, "id": "i_010", "type": "path", "building_id": "b-18", "floor": "2F", "scope": "indoor", "memo": "2F -> B1" }, "geometry": { "type": "LineString", "coordinates": [ [ 127.140767563229858, 36.470408871496382 ], [ 127.140767044655604, 36.470376777493279 ], [ 127.14072924633227, 36.470376777493271 ], [ 127.140728785377092, 36.47033529152862 ], [ 127.140800233427328, 36.470337596304432 ] ] } }
]
}
