{"type":"FeatureCollection","name":"naver","crs":{"type":"name","properties":{"name":"urn:ogc:def:crs:OGC:1.3:CRS84"}},"features":[{"type":"Feature","properties":{"building_n":"공주대학교 국민체육센터","id":"b-25"},"geometry":{"type":"MultiPolygon","coordinates":[[[[127.13701387830804,36.465934477904874],[127.13711326074932,36.465881848293066],[127.13708771558052,36.46585233939856],[127.13723999367167,36.465770672657726],[127.13703703143817,36.46552342153841],[127.13672879693199,36.46568724545613],[127.13694983485472,36.46595832455154],[127.1370069052893,36.46592729124262],[127.13700676989086,36.4659271823538],[127.13701387830804,36.465934477904874]]]]}},{"type":"Feature","properties":{"building_n":"공주대학교 공주학연구원","id":"b-26"},"geometry":{"type":"MultiPolygon","coordinates":[[[[127.13941889276595,36.46566160205417],[127.13955578056988,36.46564004198994],[127.13955933477838,36.46565468758982],[127.13971660004472,36.465630840849585],[127.13971331663303,36.465615841355124],[127.13977864637127,36.46560615021018],[127.13974655694545,36.46546780626142],[127.13956327825746,36.46549614474094],[127.13955244638376,36.4654469992957],[127.13937462312381,36.465474294258804],[127.13941889276595,36.46566160205417]]]]}},{"type":"Feature","properties":{"building_n":"공주대학교 인문사회과학대학관","id":"b-0"},"geometry":{"type":"MultiPolygon","coordinates":[[[[127.13805385665687,36.466652324094206],[127.13810593991627,36.46662807840545],[127.13816325858126,36.466708873141236],[127.13834360927845,36.4666259732405],[127.13831458888347,36.46658630175927],[127.13859581140463,36.46645659801448],[127.13861557957418,36.466483493365985],[127.13870765050063,36.46644080924102],[127.13868855932324,36.46641483942391],[127.13907711048053,36.46623629669565],[127.13904569381569,36.46619081876523],[127.13907185532936,36.466177956315384],[127.13902975699835,36.46611791620888],[127.13900313851494,36.46613064085661],[127.13894533185145,36.46604703482976],[127.13853942854013,36.466231863747055],[127.13848943320187,36.466159546930385],[127.13842440070542,36.46619055462565],[127.13847491013445,36.466261820598255],[127.13818163735203,36.46639515342399],[127.13815768393003,36.46636135512477],[127.13797781638308,36.46644391287102],[127.1380670754123,36.4665704624851],[127.13801271030162,36.4665952103717],[127.13805385665687,36.466652324094206]]]]}},{"type":"Feature","properties":{"building_n":"공주대학교 백제교육문화관","id":"b-32"},"geometry":{"type":"MultiPolygon","coordinates":[[[[127.13940299679535,36.46676544150912],[127.13950225649873,36.46672282562082],[127.13948721934048,36.46669741886587],[127.13950775084506,36.46668875614889],[127.13928616964263,36.466384165102454],[127.13918944023035,36.46643021139203],[127.13919117528707,36.4664329148665],[127.13911851978678,36.466468060026244],[127.13913153271216,36.46648538550855],[127.13881437880192,36.466632244978186],[127.13883393433709,36.46665869825767],[127.13867268250286,36.46673174995954],[127.13872393897027,36.466804074855624],[127.13870232305518,36.46681154571124],[127.13875047087932,36.46687828919855],[127.13879254600484,36.46685991730362],[127.13883653692221,36.46692009105728],[127.13894396585103,36.46695247440103],[127.13896037659588,36.466973695076774],[127.13898445050792,36.46696305567019],[127.13902677866255,36.46697552644989],[127.13921387561258,36.46688796932505],[127.13919854927819,36.46686541143091],[127.13927409653972,36.46682855135264],[127.1392592039695,36.466806651138164],[127.13928238324291,36.46679527043691],[127.1392603426005,36.46676204401217],[127.1392683130173,36.46671606332607],[127.13922179180891,36.46664748468454],[127.13916246100202,36.466628549512485],[127.13915087136532,36.46661461793213],[127.13925987494848,36.466565047975486],[127.13940299679535,36.46676544150912]]]]}},{"type":"Feature","properties":{"building_n":"공주대학교 블룸하우스","id":"b-30"},"geometry":{"type":"MultiPolygon","coordinates":[[[[127.13802210174772,36.467246123161374],[127.13821387973627,36.467305429987064],[127.13829183529273,36.46715260076717],[127.13828758067608,36.46715208569465],[127.13829375673252,36.467141305962095],[127.1381801630433,36.467103558490955],[127.1381738497412,36.467115258001506],[127.13798115678146,36.467051168208144],[127.13799849548793,36.46701835068154],[127.13796569376618,36.46700716622979],[127.13795260967628,36.467032993481006],[127.13787749053108,36.46700955764231],[127.13768365385717,36.467397039076445],[127.13769563998142,36.467418966376584],[127.13790873680162,36.467485005774904],[127.13802210174772,36.467246123161374]]]]}},{"type":"Feature","properties":{"building_n":"공주대학교 비전하우스B동","id":"b-35"},"geometry":{"type":"MultiPolygon","coordinates":[[[[127.13772501056079,36.46807078565208],[127.13776394259047,36.468004010943],[127.1377563940771,36.468001141284766],[127.1377681972071,36.46798145836984],[127.13777551697765,36.46798447519077],[127.13781444900727,36.46791663348197],[127.13771009652834,36.46787774588134],[127.137692849319,36.467907693382536],[127.13767857576639,36.46790213801156],[127.13762294551017,36.467997830140604],[127.13763863726825,36.46800401094305],[127.13762161880179,36.4680328178907],[127.13772501056079,36.46807078565208]]]]}},{"type":"Feature","properties":{"building_n":"공주대학교 비전하우스A동","id":"b-34"},"geometry":{"type":"MultiPolygon","coordinates":[[[[127.13799094697494,36.46792483776983],[127.13808557788367,36.46795977036714],[127.13810191012173,36.46793203951513],[127.13811156878769,36.46793580594489],[127.13820424394521,36.467772400671116],[127.13818943856553,36.46776686828456],[127.13821606423087,36.467723050665505],[127.13812455566175,36.467689207884256],[127.13810577015688,36.467721201936726],[127.13805655470745,36.46770322856539],[127.13807276685552,36.46767473191629],[127.13803576841764,36.467661321724854],[127.13801706654688,36.46769426515972],[127.13799746721789,36.467687257405494],[127.13794871497257,36.46777395794819],[127.13798009705921,36.4677862506059],[127.13794512513978,36.46784776042828],[127.13801952731933,36.46787513950082],[127.13799094697494,36.46792483776983]]]]}},{"type":"Feature","properties":{"building_n":"공주대학교 무용관","id":"b-33"},"geometry":{"type":"MultiPolygon","coordinates":[[[[127.13992804455077,36.46789963165617],[127.1400470011873,36.467876885614835],[127.1400531386434,36.467898863366244],[127.14015394346414,36.46788016830906],[127.14014803761019,36.467857352417425],[127.1402987526868,36.46782857644658],[127.1402637518172,36.467711866028075],[127.13989719804444,36.467777345413715],[127.13992804455077,36.46789963165617]]]]}},{"type":"Feature","properties":{"building_n":"공주대학교 음악관","id":"b-2"},"geometry":{"type":"MultiPolygon","coordinates":[[[[127.13997796928207,36.46749908383452],[127.14005795886266,36.46749279779333],[127.14006316991019,36.46751479893527],[127.14008440492917,36.46751372507013],[127.14008668476252,36.46752865441307],[127.14011515010996,36.46752755435633],[127.14011632259563,36.46754468380967],[127.14014055396693,36.46754494572787],[127.14014068424308,36.467556836814026],[127.14017155970014,36.467556103443144],[127.1401727321858,36.4675730233557],[127.1402010672571,36.467572342368555],[127.14020100211904,36.46758381438158],[127.14022067382372,36.46758370961434],[127.14022406100464,36.46760969188414],[127.14026614021395,36.46760728223851],[127.14027291457583,36.467638188557125],[127.1403781125991,36.46762092816546],[127.14038123922765,36.46763098581449],[127.14044702056124,36.467618433396886],[127.14044533511307,36.46760941687028],[127.14051883531087,36.46759768949097],[127.1405523244339,36.467725040484886],[127.14060670761872,36.46771655435391],[127.1406130005693,36.46773927243163],[127.14067565527434,36.467728708968316],[127.14066866158028,36.46770569254688],[127.14077004266377,36.46768843851358],[127.14075606901574,36.46762843886738],[127.14073446963059,36.467632085256035],[127.14066435406929,36.46737423543133],[127.14063807619137,36.467377716086446],[127.14060793391967,36.46736471335253],[127.14050158580199,36.4673809232614],[127.14049156929322,36.46740389558047],[127.14046643527587,36.46740968838282],[127.14048371684497,36.46746605008928],[127.1403748646001,36.46748758039951],[127.14038587039363,36.467522187998775],[127.14027034047639,36.4675455332025],[127.14026585777955,36.46753203326128],[127.14024533011963,36.46753506639746],[127.14023753950174,36.467515375872],[127.14020959220566,36.46751883165902],[127.14020779912694,36.467504560997924],[127.1401858493701,36.467506251599026],[127.14018220138233,36.467492428447756],[127.14015641814684,36.46749272678918],[127.14015181178945,36.46747542298488],[127.14013057308105,36.46747840639969],[127.14012377174794,36.467461798722454],[127.14010281127591,36.467463190982976],[127.14009866864578,36.467450958979114],[127.14007678071921,36.46745095897914],[127.1400646619803,36.4674213237098],[127.14002193724231,36.46742977672401],[127.14003195375102,36.467463688218835],[127.13997173103786,36.46746806389452],[127.13997796928207,36.46749908383452]]]]}},{"type":"Feature","properties":{"building_n":"공주대학교 마루관","id":"b-3"},"geometry":{"type":"MultiPolygon","coordinates":[[[[127.14002116436349,36.46843078112328],[127.14036116918847,36.468368478218956],[127.14025077118609,36.467979270394686],[127.13991070453088,36.46804189059733],[127.14002116436349,36.46843078112328]]]]}},{"type":"Feature","properties":{"building_n":"공주대학교 제2도서관","id":"b-4"},"geometry":{"type":"MultiPolygon","coordinates":[[[[127.14055203932759,36.46881503305465],[127.14063161492486,36.46880096152309],[127.14062419528878,36.46877401179829],[127.1406749579659,36.46876516114861],[127.14066076791184,36.46871688033961],[127.1406108399438,36.4687254823809],[127.1405779153086,36.468603934951666],[127.14061915611934,36.468596924028475],[127.14062700856756,36.46862596217429],[127.14066781656622,36.46861905069882],[127.14065996411797,36.4685898633818],[127.1408696615837,36.46855314303637],[127.14082310336711,36.46838184749169],[127.1403765649336,36.46846045951435],[127.14037891448504,36.468468564354644],[127.14037001092169,36.468469608536466],[127.14045635693701,36.468788555700776],[127.14046609520939,36.46878686512764],[127.14046999051834,36.4688045166983],[127.14054539257036,36.46879126559],[127.14055203932759,36.46881503305465]]]]}},{"type":"Feature","properties":{"building_n":"공주대학교 외국어상업정보관","id":"b-8"},"geometry":{"type":"MultiPolygon","coordinates":[[[[127.14095656407174,36.46852445292363],[127.1413394791256,36.46845588500288],[127.14133546015603,36.468440470886165],[127.14136853936704,36.46843430523861],[127.14135747174318,36.46839373128771],[127.14137781391219,36.46838915677231],[127.14137185759317,36.46836701346203],[127.14135438022811,36.46837039462659],[127.14133240986119,36.46829189853307],[127.14127084749155,36.468303351409766],[127.14126260345145,36.468272838025385],[127.14096864159052,36.46832572677905],[127.140976143667,36.468355428],[127.14089551695446,36.46836988082219],[127.14091489044873,36.46843690740713],[127.1409319143916,36.4684342886643],[127.14095656407174,36.46852445292363]]]]}},{"type":"Feature","properties":{"building_n":"교육정보관","id":"b-7"},"geometry":{"type":"MultiPolygon","coordinates":[[[[127.14083059513837,36.46879521026038],[127.14111484964197,36.46874459250008],[127.14110083477371,36.46869327858752],[127.14112177463558,36.46868996373411],[127.14109461052335,36.46859300420946],[127.14078972530936,36.46864727669681],[127.14083059513837,36.46879521026038]]]]}},{"type":"Feature","properties":{"building_n":"공주대학교 사범1관","id":"b-6"},"geometry":{"type":"MultiPolygon","coordinates":[[[[127.14088247076083,36.46898546578357],[127.14095354469178,36.46897410416575],[127.14095740908553,36.468989095534184],[127.14103899416769,36.46897584445745],[127.14103509885871,36.46896052988935],[127.14106459191228,36.468955458181085],[127.14105296781568,36.46891108071956],[127.14115916135759,36.46889300653045],[127.14116593177553,36.46892090094431],[127.14124861434551,36.46890672998666],[127.14124156569119,36.4688796186999],[127.14136245938718,36.46885938778169],[127.14137525825953,36.46890812843654],[127.14138912370444,36.468905779040725],[127.14139287989528,36.46891892446882],[127.14147760286518,36.468904156838796],[127.14147440314711,36.46889112328422],[127.14154973564003,36.46887864910761],[127.14151314755948,36.46873947519852],[127.14144212773004,36.46875137603191],[127.14143847587786,36.46873899972453],[127.14143847587786,36.46873899972453],[127.14090893123138,36.468827395883444],[127.14091229615228,36.46883960436258],[127.14084836265494,36.46885017665224],[127.14088247076083,36.46898546578357]]]]}},{"type":"Feature","properties":{"building_n":"문화체육관","id":"b-5"},"geometry":{"type":"MultiPolygon","coordinates":[[[[127.14179807245478,36.46868821751211],[127.14197094526658,36.46866929118518],[127.14209419527663,36.46864786336803],[127.14220265528552,36.46861779833706],[127.14217624456907,36.468357407306414],[127.14233623482033,36.46821024374508],[127.14249678263106,36.4683306460253],[127.14260078216334,36.468238279416184],[127.1421902422489,36.46793805177782],[127.1421686441519,36.467957969446836],[127.14162270529775,36.46805264910195],[127.1416545155384,36.4682231288275],[127.14166684053941,36.46830657502383],[127.14171121054302,36.46848120761006],[127.141726822211,36.46853671237127],[127.14179807245478,36.46868821751211]]]]}},{"type":"Feature","properties":{"building_n":"공주대학교 세종한민족교육문화센터","id":"b-9"},"geometry":{"type":"MultiPolygon","coordinates":[[[[127.14366754034576,36.469300559572424],[127.14381262321477,36.46917449509631],[127.14383187369253,36.46920696698398],[127.14383797750253,36.469227356301815],[127.14384314226487,36.46926077211669],[127.14384431607448,36.469273043457534],[127.14405783204434,36.4692751201458],[127.14405067180566,36.46921640648365],[127.14404268990026,36.469179403638364],[127.14403282989946,36.46914995238152],[127.14401968323166,36.469123899337305],[127.14400324989698,36.469101244509126],[127.14398212132382,36.46907670177112],[127.14396662703685,36.46906122096316],[127.1439534803691,36.46905017672631],[127.14398523191926,36.46902195255837],[127.14383909262172,36.468913633958834],[127.1438057564285,36.46894195256155],[127.14366149522625,36.468834153025256],[127.14361190176983,36.4688787076679],[127.14353724747801,36.46882202320813],[127.14351159973783,36.46884538608376],[127.14349839437959,36.46883552175936],[127.1434367693746,36.46888975192918],[127.14365709344023,36.46905414132438],[127.14350954557102,36.469183887402515],[127.14366754034576,36.469300559572424]]]]}},{"type":"Feature","properties":{"building_n":"공주대학교 특수문헌정보관","id":"b-10"},"geometry":{"type":"MultiPolygon","coordinates":[[[[127.14273577026977,36.46945220481254],[127.14279628015561,36.46944861781372],[127.14279052848846,36.469388818743],[127.14346772860333,36.46934999887961],[127.14345323205458,36.46917635939849],[127.14316670512646,36.46919280773244],[127.14316349182258,36.46914456006296],[127.14304345511631,36.469151754737524],[127.14304860520605,36.469218139516755],[127.14271701866127,36.46923821024867],[127.14271998986685,36.46927325437127],[127.14268052235249,36.46927536498271],[127.14268260219637,36.46930503300513],[127.14272226779113,36.469303320622934],[127.14273577026977,36.46945220481254]]]]}},{"type":"Feature","properties":{"building_n":"공주대학교 사범대학관","id":"b-11"},"geometry":{"type":"MultiPolygon","coordinates":[[[[127.14181174183551,36.4698893115302],[127.14183229267425,36.46988628501701],[127.14183665044243,36.469899983970464],[127.14207964554032,36.46985534289518],[127.14209266932478,36.469897196392935],[127.14256335781168,36.469809666407066],[127.14251784884598,36.46964687152082],[127.14243549693077,36.46966196430965],[127.14244099366117,36.469682711911624],[127.14223338066996,36.46972086199829],[127.1422174352,36.469665229767514],[127.14208890579779,36.469688496150894],[127.14210461604742,36.46974463112559],[127.14190756940576,36.469780217602214],[127.1419016084245,36.469758474461074],[127.14180120024506,36.469777156239985],[127.14182493274988,36.46986159005913],[127.14180435715106,36.46986565195969],[127.14181174183551,36.4698893115302]]]]}},{"type":"Feature","properties":{"building_n":"공주대학교 대학본부","id":"b-12"},"geometry":{"type":"MultiPolygon","coordinates":[[[[127.14147607607191,36.470108111196524],[127.14179770907862,36.47004588364875],[127.1417791390436,36.469979668823875],[127.1417866041977,36.469978384548405],[127.14176158107556,36.46989079056463],[127.1417448053702,36.46989322658404],[127.14173201990114,36.46984571579135],[127.14174338476256,36.46984366617378],[127.14171777204179,36.469753449345575],[127.14170657431066,36.46973806039382],[127.14166830146856,36.469724485857434],[127.14157086449477,36.46970916410063],[127.1415259900051,36.469711784927654],[127.14146732726451,36.46972616587444],[127.14119406919919,36.46988912735134],[127.1411838742499,36.469903709866784],[127.14118153442548,36.46992602043812],[127.14119106085346,36.469950078215696],[127.14121362344596,36.469969969556864],[127.14147607607191,36.470108111196524]]]]}},{"type":"Feature","properties":{"building_n":"공주대학교 제1과학교육관","id":"b-13"},"geometry":{"type":"MultiPolygon","coordinates":[[[[127.14168150476343,36.470348777671084],[127.14169621223115,36.4703565056868],[127.14175048780103,36.47034679526695],[127.14174848223728,36.47033900005014],[127.14223376599874,36.47024671739144],[127.14223664899667,36.470256142222894],[127.14229010980624,36.470245558187486],[127.14230001227742,36.47023275654271],[127.14229299280414,36.47020372603341],[127.14228171150789,36.47020392763421],[127.14225996367571,36.47013034330856],[127.14227086892876,36.47012706729244],[127.14226146784854,36.47009733113977],[127.14224579938148,36.47008936789696],[127.1421921505503,36.470099145549405],[127.14219403076632,36.47010862079907],[127.14200359621779,36.470144304175726],[127.141990215347,36.47009508832781],[127.1418874615401,36.4701148452311],[127.14190087374794,36.470163884665695],[127.14170862165726,36.4702013068238],[127.14170583267014,36.47019205838641],[127.14165324929473,36.47020158402492],[127.14164472564876,36.47021504087732],[127.14165224651293,36.47024308857903],[127.1416625563643,36.47024082057119],[127.14166565872074,36.47025337021376],[127.14163689141527,36.470259166232765],[127.14165321795792,36.47032158680976],[127.1416644992542,36.47032015040621],[127.14166487529742,36.470328617626514],[127.14167803680975,36.47032695442262],[127.14168150476343,36.470348777671084]]]]}},{"type":"Feature","properties":{"building_n":"공주대학교 제2과학교육관","id":"b-14"},"geometry":{"type":"MultiPolygon","coordinates":[[[[127.14213085550749,36.47076029343556],[127.14219014498677,36.470748903071474],[127.14220293045594,36.47078897093771],[127.14283349224385,36.47066075369284],[127.14278648684275,36.470510561839134],[127.14251723990505,36.47056512611967],[127.14250094469928,36.470512332139094],[127.14240307945408,36.47053299613581],[127.14241953134446,36.47058470650335],[127.1421393791536,36.470642162426785],[127.14214564654034,36.47068943753189],[127.14211092521738,36.470697803912074],[127.14213085550749,36.47076029343556]]]]}},{"type":"Feature","properties":{"building_n":"공주대학교 은행사","id":"b-36"},"geometry":{"type":"MultiPolygon","coordinates":[[[[127.14317089701392,36.46999293321323],[127.14317089701392,36.46999293321323],[127.14419144694774,36.46996672503391],[127.14418900266683,36.46985357615799],[127.14316685454935,36.46987854956554],[127.14317089701392,36.46999293321323]]]]}},{"type":"Feature","properties":{"building_n":"공주대학교 중앙도서관","id":"b-1"},"geometry":{"type":"MultiPolygon","coordinates":[[[[127.14047128281257,36.469736495877754],[127.1409660616655,36.46960268242659],[127.14081564438168,36.46924130935331],[127.14032058349639,36.46937557703493],[127.14047128281257,36.469736495877754]]]]}},{"type":"Feature","properties":{"building_n":"공주대학교 학생생활관 식당","id":"b-38"},"geometry":{"type":"MultiPolygon","coordinates":[[[[127.14432779394816,36.469992404009716],[127.14439999424441,36.470003063680196],[127.14439228535865,36.47003995671282],[127.14473504874411,36.47008932379659],[127.14474303966232,36.470050616376746],[127.14480734305114,36.470060368833956],[127.1448531263119,36.46984808251124],[127.14437367121978,36.469780041900165],[127.14432779394816,36.469992404009716]]]]}},{"type":"Feature","properties":{"building_n":"공주대학교 홍익사","id":"b-31"},"geometry":{"type":"MultiPolygon","coordinates":[[[[127.14483009366538,36.47031476389291],[127.14482261980685,36.470347649968915],[127.14520298751331,36.47040162846334],[127.14518982600096,36.47046811872797],[127.14571379520805,36.47054220673282],[127.14574406668638,36.470404765867656],[127.14531208704936,36.47034307615915],[127.14532896198838,36.47026282654457],[127.14530832661721,36.47026021833619],[127.14531199303852,36.47024472028467],[127.14522536208405,36.47023160363861],[127.14522211871132,36.470247819895214],[127.14485632267923,36.4701956935012],[127.14484522940455,36.47024120487252],[127.14482506408744,36.4702387100638],[127.14480931727805,36.470312420286966],[127.14483009366538,36.47031476389291]]]]}},{"type":"Feature","properties":{"building_n":"공주대학교 해오름집","id":"b-39"},"geometry":{"type":"MultiPolygon","coordinates":[[[[127.14517238699717,36.47115991271681],[127.14521196554493,36.47116221849745],[127.14521346971776,36.471128803571276],[127.14529845548317,36.47113394433007],[127.14531100592536,36.4709092248124],[127.14539566265299,36.470917843167555],[127.1453691516067,36.47094384942645],[127.1454271092664,36.47099537052115],[127.1454079310627,36.4710113976192],[127.14544055281118,36.47103407746927],[127.14547345659206,36.47099748730789],[127.14548393879649,36.47100844923821],[127.1455392641537,36.4709646393074],[127.14558250912286,36.47091852356399],[127.14561090038518,36.47086409183157],[127.14562631815683,36.47081805162803],[127.14563929164757,36.47076603901709],[127.14564681251174,36.47073156552315],[127.14565320524635,36.47065279050801],[127.14557630440991,36.47065445370495],[127.14557668045308,36.47063139574439],[127.14554387068301,36.47062897654812],[127.14553559773239,36.470673126867965],[127.14551566744231,36.47067615086156],[127.14550137780029,36.47073179232256],[127.1454912246336,36.47076445142233],[127.14548257563979,36.47079741290723],[127.1454650896305,36.47083793434655],[127.14545568855029,36.470855700269425],[127.14539646174472,36.47084919869811],[127.14540003415522,36.47080217568943],[127.145330184129,36.470798773702164],[127.1453258596321,36.470842167928524],[127.14532341535121,36.470842167928524],[127.14532604765371,36.47075280905962],[127.14527791412284,36.47075537945154],[127.14518127101788,36.47066314768829],[127.1451727160348,36.47074887787182],[127.14518174107184,36.47074925587066],[127.14515353783113,36.471094141240144],[127.14517610042371,36.471095048433305],[127.14517238699717,36.47115991271681]]]]}},{"type":"Feature","properties":{"building_n":"공주대학교 자연과학대학","id":"b-15"},"geometry":{"type":"MultiPolygon","coordinates":[[[[127.14449621430033,36.471217519412576],[127.14471356727557,36.47122386975438],[127.14474101842976,36.47063683893567],[127.14353636400715,36.4706016849851],[127.14352903116462,36.47077367459151],[127.14451586255798,36.47080349868441],[127.14449621430033,36.471217519412576]]]]}},{"type":"Feature","properties":{"building_n":"공주대학교 간호보건예술대학","id":"b-16"},"geometry":{"type":"MultiPolygon","coordinates":[[[[127.14301756539392,36.471856293152264],[127.14371672373177,36.47186048887933],[127.14371686474794,36.47187659139715],[127.14384913794694,36.471876137805125],[127.14384956099556,36.47179347061773],[127.14394672115995,36.471794944793345],[127.14395200926757,36.47123311176875],[127.1438695147884,36.47123209117825],[127.14387036088561,36.471193819025196],[127.14377284818076,36.47119330872968],[127.14377210784575,36.471169409886585],[127.14328795515087,36.471166900932865],[127.14328787582926,36.47117726631313],[127.14324409029804,36.47117688359142],[127.14324397131563,36.471250366124664],[127.1432864480402,36.47125074884601],[127.14328692396994,36.47133925310625],[127.14371817575791,36.471342362713585],[127.14371508221495,36.47168547123349],[127.14305068437143,36.47168221812023],[127.14304937556476,36.47173737750726],[127.14301992741541,36.47173847782419],[127.14301756539392,36.471856293152264]]]]}},{"type":"Feature","properties":{"building_n":"공주대학교 사범2호관","id":"b-17"},"geometry":{"type":"MultiPolygon","coordinates":[[[[127.14224261525356,36.47179521588565],[127.1422891373805,36.47179521588565],[127.14228907788923,36.47186731047885],[127.14258808071536,36.47186955894881],[127.14258796173293,36.47184439521725],[127.14280534261772,36.47184640448893],[127.14280748430134,36.471665761192305],[127.14244672959833,36.47166403895545],[127.14244649163348,36.47169178609998],[127.14229038669606,36.47169082930205],[127.14229062466089,36.47174900259422],[127.14224303169213,36.47174861987534],[127.14224261525356,36.47179521588565]]]]}},{"type":"Feature","properties":{"building_n":"공주대학교 드림하우스","id":"b-28"},"geometry":{"type":"MultiPolygon","coordinates":[[[[127.14085974205587,36.47154482180082],[127.14089972014973,36.47195576619513],[127.141807318063,36.47199269846009],[127.14181636072709,36.47185386749724],[127.14111579222764,36.4718251636145],[127.14111341257916,36.47188218865112],[127.14106010845424,36.471880275059995],[127.14102631744645,36.471533148843235],[127.14085974205587,36.47154482180082]]]]}},{"type":"Feature","properties":{"building_n":"공주대학교 산학연구관","id":"b-29"},"geometry":{"type":"MultiPolygon","coordinates":[[[[127.1412634494131,36.471372310617625],[127.14144787216685,36.4713579585884],[127.14140146902237,36.4709725577702],[127.14119491553815,36.47098978029057],[127.14118539694445,36.470905055021525],[127.14113851787026,36.470908643050066],[127.14114797697277,36.47099360751679],[127.14112316913781,36.470995042726585],[127.14112019457725,36.47097054847591],[127.14083654048378,36.47099312911354],[127.1408410618158,36.47102728709943],[127.14080396904583,36.471029535593786],[127.1408125357802,36.471104549154944],[127.14080206532707,36.471116413538056],[127.14079492638176,36.47112827791937],[127.14078992912006,36.47113669780176],[127.14078516982315,36.471152198037444],[127.14078302813958,36.47116425377418],[127.14078237373623,36.47116851155375],[127.14078356356048,36.47118018456625],[127.1407849913495,36.47119128349452],[127.14078760896278,36.4711995120093],[127.14079284418932,36.47121175909942],[127.14079760348623,36.47122132713723],[127.14080283871277,36.471231851977464],[127.1408133091659,36.471240845930694],[127.14082342267174,36.47124936148123],[127.14083329821277,36.47125586774392],[127.14083924733386,36.47125940791602],[127.14084959880456,36.47126457465342],[127.14086506651935,36.471270602513265],[127.14088529353107,36.47127538652871],[127.1408979056678,36.4712774914954],[127.14091408727715,36.47127730013478],[127.1409231299412,36.47127653469236],[127.14094454677709,36.47127442972565],[127.14096001449194,36.47126945434954],[127.14097738592551,36.471263904891195],[127.14099547125365,36.471254336858635],[127.14100974914426,36.47124304657869],[127.14101498437083,36.471237401438096],[127.14102319415794,36.47122859884519],[127.14102783447238,36.471220753055],[127.14103378359346,36.47121080229557],[127.14103556832978,36.47120664019871],[127.14114836366564,36.471198890086704],[127.14114693587659,36.47117382181786],[127.14123926623589,36.4711673155483],[127.1412634494131,36.471372310617625]]]]}},{"type":"Feature","properties":{"building_n":"공주대학교 글로벌인재관","id":"b-22"},"geometry":{"type":"MultiPolygon","coordinates":[[[[127.14006633752203,36.47077693837449],[127.14041162451005,36.47072469657415],[127.1403656972953,36.470525488506794],[127.14019531446728,36.470552040043934],[127.140189305855,36.47052381408525],[127.14001226001142,36.470550604825924],[127.14006633752203,36.47077693837449]]]]}},{"type":"Feature","properties":{"building_n":"공주대학교 학생복지관","id":"b-23"},"geometry":{"type":"MultiPolygon","coordinates":[[[[127.14002338486782,36.4703762734832],[127.14009019349764,36.47036364353532],[127.14009947412653,36.47034814314196],[127.14018728315382,36.470334843419245],[127.14019192346828,36.470356467427656],[127.14024475166354,36.47034823882342],[127.1402390405073,36.470326423449755],[127.14031947262438,36.47031408053822],[127.1403354162689,36.470323935731315],[127.1404064487747,36.470309392145],[127.14042477206765,36.47024681642011],[127.14040775758134,36.47018414496305],[127.14036706559307,36.470135538668316],[127.14030245813804,36.470146446382785],[127.14026700137636,36.46999412096824],[127.14000666783751,36.470037847578276],[127.140032487023,36.47014070548063],[127.13998370423006,36.47014845569845],[127.13998655980818,36.47018404928139],[127.1399834662652,36.47019897561776],[127.13996645177889,36.47026011615791],[127.13997008074274,36.470310827367456],[127.14002338486782,36.4703762734832]]]]}},{"type":"Feature","properties":{"building_n":"공주대학교 생활미술관","id":"b-20"},"geometry":{"type":"MultiPolygon","coordinates":[[[[127.13915415878542,36.470458774739704],[127.1391714707278,36.47045537805299],[127.13919675449243,36.470545079236466],[127.1397762583777,36.47044176738437],[127.13972765405842,36.47026420654448],[127.13946004771904,36.47031185594355],[127.1394429142503,36.47024820380296],[127.13938990758142,36.470257819800494],[127.13940614868197,36.47032096960541],[127.13914878970368,36.470368044881056],[127.13916467385698,36.470428611199736],[127.1391455771783,36.470431768684264],[127.13915415878542,36.470458774739704]]]]}},{"type":"Feature","properties":{"building_n":"공주대학교 신관캠퍼스박물관","id":"b-24"},"geometry":{"type":"MultiPolygon","coordinates":[[[[127.13992604237383,36.46992054156214],[127.14022016692046,36.469860405415695],[127.14016662483066,36.469691622091986],[127.1400848839069,36.46970970603711],[127.14008006511882,36.469688751624126],[127.14001742087372,36.469701955775434],[127.14000849719208,36.4696738251895],[127.13985697307798,36.4697068355699],[127.13992604237383,36.46992054156214]]]]}},{"type":"Feature","properties":{"building_n":"공주대학교 웅비학생회관","id":"b-19"},"geometry":{"type":"MultiPolygon","coordinates":[[[[127.13933458075513,36.4700672218955],[127.13946647276967,36.47003579041885],[127.13946094008703,36.47002143814217],[127.13952858159384,36.47000593768036],[127.13953625596,36.47002760962146],[127.1396343272212,36.470005076543515],[127.13963182859034,36.469998187448304],[127.13987544509892,36.469940706536356],[127.13985429597345,36.46988301029719],[127.13984421221318,36.469885665473335],[127.13973677108633,36.46958684994593],[127.13937357724383,36.46967238995522],[127.13936393966763,36.46964626868723],[127.13919688834748,36.469686885819904],[127.13920545508188,36.469712432980806],[127.13917368677524,36.46972018324144],[127.1392001008729,36.46979538943398],[127.13923329696857,36.46978735213444],[127.13933458075513,36.4700672218955]]]]}},{"type":"Feature","properties":{"building_n":"공주대학교 교양관","id":"b-21"},"geometry":{"type":"MultiPolygon","coordinates":[[[[127.13908105895999,36.46961117718972],[127.1392888022684,36.469568191877684],[127.13927238269424,36.46951566221523],[127.13965413779451,36.46943801584572],[127.13966556010703,36.46947490146903],[127.13989043688427,36.46942926088972],[127.13985135115874,36.46930324682376],[127.13983778716265,36.469306978450525],[127.13983225448003,36.46928702859766],[127.13974792568855,36.469304395016614],[127.13974364232142,36.46928961203212],[127.13974364232142,36.46928961203212],[127.1395982755476,36.46932039795297],[127.13960246967794,36.46933467859742],[127.13926484218332,36.46940349834959],[127.13926051419773,36.46938850009809],[127.13911586131837,36.4694179942646],[127.13912076934326,36.46943256193883],[127.1390309078692,36.46945078946821],[127.13908105895999,36.46961117718972]]]]}},{"type":"Feature","properties":{"building_n":"공주대학교 학군단","id":"b-37"},"geometry":{"type":"MultiPolygon","coordinates":[[[[127.14206098858757,36.47157810646519],[127.14208169152893,36.47156945939084],[127.1420872242116,36.471578572904846],[127.14235011587257,36.471478395952026],[127.14234565403177,36.471470466467075],[127.14238027791656,36.471456832056646],[127.14231156556795,36.47133857138555],[127.1422835452076,36.47134876132914],[127.14227979726131,36.47134201587369],[127.14217324850253,36.471383206198894],[127.14215593656016,36.471352923418394],[127.14209918194496,36.47137646074644],[127.14211685083458,36.471404877754914],[127.14203011264911,36.47143731331753],[127.14203457448995,36.47144430992495],[127.14199142848922,36.47146059945976],[127.14206098858757,36.47157810646519]]]]}},{"type":"Feature","properties":{"building_n":"공주대학교 NH농협은행 공주대지점","id":"b-41"},"geometry":{"type":"MultiPolygon","coordinates":[[[[127.13845854292899,36.47007934956251],[127.13848406465848,36.47006801127053],[127.13851672533328,36.47011781362929],[127.13898512938243,36.46990941853156],[127.13891588161293,36.469807660666625],[127.13875177510756,36.46988171859003],[127.13872759193035,36.46984533549116],[127.138427934701,36.469921546223084],[127.13841883254577,36.469914083028506],[127.13840812412778,36.469912217229776],[127.13839652334167,36.46991221722977],[127.13838635034455,36.469914944166405],[127.1383806391883,36.46991924985561],[127.13837617734744,36.46992384259048],[127.13837332176935,36.46992814827921],[127.13837171550666,36.469935898518266],[127.13836038243095,36.46993704670178],[127.13845854292899,36.47007934956251]]]]}},{"type":"Feature","properties":{"building_n":"공주대학교 글로벌우정연수관","id":"b-27"},"geometry":{"type":"MultiPolygon","coordinates":[[[[127.13971680538847,36.47184253683615],[127.14041044316693,36.471858898025964],[127.1404220885715,36.47159281298408],[127.13972671067516,36.47156956279139],[127.13971680538847,36.47184253683615]]]]}},{"type":"Feature","properties":{"building_n":"공주대학교 미래융합역사문화관","id":"b-18"},"geometry":{"type":"MultiPolygon","coordinates":[[[[127.14066342954318,36.47061554673192],[127.14122260974753,36.4705943952213],[127.14122501914159,36.47025919951897],[127.14064094186526,36.47028551792376],[127.14066342954318,36.47061554673192]]]]}},{"type":"Feature","properties":{"building_n":"공주대학교 헌혈의집","id":"b-40"},"geometry":{"type":"MultiPolygon","coordinates":[[[[127.1398950893573,36.46937716233137],[127.13995892931825,36.46936279559328],[127.1399656756155,36.46938469733282],[127.14004781803105,36.46936621146132],[127.14000481038615,36.46923728745516],[127.13992282413496,36.46925612499135],[127.13993238138936,36.469284758037595],[127.13986876005842,36.46929907455675],[127.1398950893573,36.46937716233137]]]]}}]}
